{
  "saudi-arabia": {
    "name": "Saudi Arabia",
    "nameAr": "Ø§Ù„Ù…Ù…Ù„ÙƒØ© Ø§Ù„Ø¹Ø±Ø¨ÙŠØ© Ø§Ù„Ø³Ø¹ÙˆØ¯ÙŠØ©",
    "code": "SA",
    "flag": "ğŸ‡¸ğŸ‡¦",
    "slug": "saudi-arabia",
    "cities": [
      {
        "name": "Riyadh",
        "nameAr": "Ø§Ù„Ø±ÙŠØ§Ø¶",
        "slug": "riyadh",
        "latitude": 24.7136,
        "longitude": 46.6753
      },
      {
        "name": "Jeddah",
        "nameAr": "Ø¬Ø¯Ø©",
        "slug": "jeddah",
        "latitude": 21.5433,
        "longitude": 39.1728
      },
      {
        "name": "Makkah",
        "nameAr": "Ù…ÙƒØ© Ø§Ù„Ù…ÙƒØ±Ù…Ø©",
        "slug": "makkah",
        "latitude": 21.3891,
        "longitude": 39.8579
      },
      {
        "name": "Madinah",
        "nameAr": "Ø§Ù„Ù…Ø¯ÙŠÙ†Ø© Ø§Ù„Ù…Ù†ÙˆØ±Ø©",
        "slug": "madinah",
        "latitude": 24.5247,
        "longitude": 39.5692
      },
      {
        "name": "Dammam",
        "nameAr": "Ø§Ù„Ø¯Ù…Ø§Ù…",
        "slug": "dammam",
        "latitude": 26.4207,
        "longitude": 50.0888
      },
      {
        "name": "Taif",
        "nameAr": "Ø§Ù„Ø·Ø§Ø¦Ù",
        "slug": "taif",
        "latitude": 21.2703,
        "longitude": 40.4158
      }
    ]
  },
  "united-arab-emirates": {
    "name": "United Arab Emirates",
    "nameAr": "Ø§Ù„Ø¥Ù…Ø§Ø±Ø§Øª Ø§Ù„Ø¹Ø±Ø¨ÙŠØ© Ø§Ù„Ù…ØªØ­Ø¯Ø©",
    "code": "AE",
    "flag": "ğŸ‡¦ğŸ‡ª",
    "slug": "united-arab-emirates",
    "cities": [
      {
        "name": "Dubai",
        "nameAr": "Ø¯Ø¨ÙŠ",
        "slug": "dubai",
        "latitude": 25.2048,
        "longitude": 55.2708
      },
      {
        "name": "Abu Dhabi",
        "nameAr": "Ø£Ø¨ÙˆØ¸Ø¨ÙŠ",
        "slug": "abu-dhabi",
        "latitude": 24.4539,
        "longitude": 54.3773
      },
      {
        "name": "Sharjah",
        "nameAr": "Ø§Ù„Ø´Ø§Ø±Ù‚Ø©",
        "slug": "sharjah",
        "latitude": 25.3463,
        "longitude": 55.4209
      },
      {
        "name": "Ajman",
        "nameAr": "Ø¹Ø¬Ù…Ø§Ù†",
        "slug": "ajman",
        "latitude": 25.4052,
        "longitude": 55.5136
      }
    ]
  },
  "kuwait": {
    "name": "Kuwait",
    "nameAr": "Ø§Ù„ÙƒÙˆÙŠØª",
    "code": "KW",
    "flag": "ğŸ‡°ğŸ‡¼",
    "slug": "kuwait",
    "cities": [
      {
        "name": "Kuwait City",
        "nameAr": "Ù…Ø¯ÙŠÙ†Ø© Ø§Ù„ÙƒÙˆÙŠØª",
        "slug": "kuwait-city",
        "latitude": 29.3759,
        "longitude": 47.9774
      },
      {
        "name": "Hawalli",
        "nameAr": "Ø­ÙˆÙ„ÙŠ",
        "slug": "hawalli",
        "latitude": 29.3333,
        "longitude": 48.0294
      },
      {
        "name": "Salmiya",
        "nameAr": "Ø§Ù„Ø³Ø§Ù„Ù…ÙŠØ©",
        "slug": "salmiya",
        "latitude": 29.3336,
        "longitude": 48.0760
      }
    ]
  },
  "qatar": {
    "name": "Qatar",
    "nameAr": "Ù‚Ø·Ø±",
    "code": "QA",
    "flag": "ğŸ‡¶ğŸ‡¦",
    "slug": "qatar",
    "cities": [
      {
        "name": "Doha",
        "nameAr": "Ø§Ù„Ø¯ÙˆØ­Ø©",
        "slug": "doha",
        "latitude": 25.2854,
        "longitude": 51.5310
      },
      {
        "name": "Al Rayyan",
        "nameAr": "Ø§Ù„Ø±ÙŠØ§Ù†",
        "slug": "al-rayyan",
        "latitude": 25.2919,
        "longitude": 51.4244
      },
      {
        "name": "Al Wakrah",
        "nameAr": "Ø§Ù„ÙˆÙƒØ±Ø©",
        "slug": "al-wakrah",
        "latitude": 25.1716,
        "longitude": 51.5997
      }
    ]
  },
  "bahrain": {
    "name": "Bahrain",
    "nameAr": "Ø§Ù„Ø¨Ø­Ø±ÙŠÙ†",
    "code": "BH",
    "flag": "ğŸ‡§ğŸ‡­",
    "slug": "bahrain",
    "cities": [
      {
        "name": "Manama",
        "nameAr": "Ø§Ù„Ù…Ù†Ø§Ù…Ø©",
        "slug": "manama",
        "latitude": 26.2285,
        "longitude": 50.5860
      },
      {
        "name": "Muharraq",
        "nameAr": "Ø§Ù„Ù…Ø­Ø±Ù‚",
        "slug": "muharraq",
        "latitude": 26.2572,
        "longitude": 50.6117
      },
      {
        "name": "Riffa",
        "nameAr": "Ø§Ù„Ø±ÙØ§Ø¹",
        "slug": "riffa",
        "latitude": 26.1300,
        "longitude": 50.5550
      }
    ]
  },
  "oman": {
    "name": "Oman",
    "nameAr": "Ø¹Ù…Ø§Ù†",
    "code": "OM",
    "flag": "ğŸ‡´ğŸ‡²",
    "slug": "oman",
    "cities": [
      {
        "name": "Muscat",
        "nameAr": "Ù…Ø³Ù‚Ø·",
        "slug": "muscat",
        "latitude": 23.5880,
        "longitude": 58.3829
      },
      {
        "name": "Salalah",
        "nameAr": "ØµÙ„Ø§Ù„Ø©",
        "slug": "salalah",
        "latitude": 17.0150,
        "longitude": 54.0924
      },
      {
        "name": "Sohar",
        "nameAr": "ØµØ­Ø§Ø±",
        "slug": "sohar",
        "latitude": 24.3477,
        "longitude": 56.7085
      }
    ]
  },
  "pakistan": {
    "name": "Pakistan",
    "nameAr": "Ø¨Ø§ÙƒØ³ØªØ§Ù†",
    "code": "PK",
    "flag": "ğŸ‡µğŸ‡°",
    "slug": "pakistan",
    "cities": [
      {
        "name": "Karachi",
        "nameAr": "ÙƒØ±Ø§ØªØ´ÙŠ",
        "slug": "karachi",
        "latitude": 24.8607,
        "longitude": 67.0011
      },
      {
        "name": "Lahore",
        "nameAr": "Ù„Ø§Ù‡ÙˆØ±",
        "slug": "lahore",
        "latitude": 31.5497,
        "longitude": 74.3436
      },
      {
        "name": "Islamabad",
        "nameAr": "Ø¥Ø³Ù„Ø§Ù… Ø¢Ø¨Ø§Ø¯",
        "slug": "islamabad",
        "latitude": 33.6844,
        "longitude": 73.0479
      },
      {
        "name": "Faisalabad",
        "nameAr": "ÙÙŠØµÙ„ Ø¢Ø¨Ø§Ø¯",
        "slug": "faisalabad",
        "latitude": 31.4504,
        "longitude": 73.1350
      },
      {
        "name": "Rawalpindi",
        "nameAr": "Ø±Ø§ÙˆÙ„Ø¨Ù†Ø¯ÙŠ",
        "slug": "rawalpindi",
        "latitude": 33.5651,
        "longitude": 73.0169
      },
      {
        "name": "Multan",
        "nameAr": "Ù…Ù„ØªØ§Ù†",
        "slug": "multan",
        "latitude": 30.1575,
        "longitude": 71.5249
      },
      {
        "name": "Peshawar",
        "nameAr": "Ø¨ÙŠØ´Ø§ÙˆØ±",
        "slug": "peshawar",
        "latitude": 34.0151,
        "longitude": 71.5249
      },
      {
        "name": "Quetta",
        "nameAr": "ÙƒÙˆÙŠØªØ§",
        "slug": "quetta",
        "latitude": 30.1798,
        "longitude": 66.9750
      }
    ]
  },
  "turkey": {
    "name": "Turkey",
    "nameAr": "ØªØ±ÙƒÙŠØ§",
    "code": "TR",
    "flag": "ğŸ‡¹ğŸ‡·",
    "slug": "turkey",
    "cities": [
      {
        "name": "Istanbul",
        "nameAr": "Ø¥Ø³Ø·Ù†Ø¨ÙˆÙ„",
        "slug": "istanbul",
        "latitude": 41.0082,
        "longitude": 28.9784
      },
      {
        "name": "Ankara",
        "nameAr": "Ø£Ù†Ù‚Ø±Ø©",
        "slug": "ankara",
        "latitude": 39.9334,
        "longitude": 32.8597
      },
      {
        "name": "Izmir",
        "nameAr": "Ø¥Ø²Ù…ÙŠØ±",
        "slug": "izmir",
        "latitude": 38.4237,
        "longitude": 27.1428
      },
      {
        "name": "Bursa",
        "nameAr": "Ø¨ÙˆØ±ØµØ©",
        "slug": "bursa",
        "latitude": 40.1826,
        "longitude": 29.0665
      },
      {
        "name": "Antalya",
        "nameAr": "Ø£Ù†Ø·Ø§Ù„ÙŠØ§",
        "slug": "antalya",
        "latitude": 36.8969,
        "longitude": 30.7133
      }
    ]
  },
  "indonesia": {
    "name": "Indonesia",
    "nameAr": "Ø¥Ù†Ø¯ÙˆÙ†ÙŠØ³ÙŠØ§",
    "code": "ID",
    "flag": "ğŸ‡®ğŸ‡©",
    "slug": "indonesia",
    "cities": [
      {
        "name": "Jakarta",
        "nameAr": "Ø¬Ø§ÙƒØ±ØªØ§",
        "slug": "jakarta",
        "latitude": -6.2088,
        "longitude": 106.8456
      },
      {
        "name": "Surabaya",
        "nameAr": "Ø³ÙˆØ±Ø§Ø¨Ø§ÙŠØ§",
        "slug": "surabaya",
        "latitude": -7.2575,
        "longitude": 112.7521
      },
      {
        "name": "Bandung",
        "nameAr": "Ø¨Ø§Ù†Ø¯ÙˆÙ†Øº",
        "slug": "bandung",
        "latitude": -6.9175,
        "longitude": 107.6191
      },
      {
        "name": "Medan",
        "nameAr": "Ù…ÙŠØ¯Ø§Ù†",
        "slug": "medan",
        "latitude": 3.5952,
        "longitude": 98.6722
      },
      {
        "name": "Yogyakarta",
        "nameAr": "ÙŠÙˆØ¬ÙŠØ§ÙƒØ§Ø±ØªØ§",
        "slug": "yogyakarta",
        "latitude": -7.7956,
        "longitude": 110.3695
      }
    ]
  }
}
